{"type": "FeatureCollection", "features": [ {"type": "Feature", "properties": {"norad_id": 33917, "name": "COSMOS 2251 DEB", "group": "cosmos-2251-debris", "lat": -41.202710070616206, "lon": 112.67247619446805, "alt_km": 992.1240283443976, "timestamp": "2025-12-09T20:37:09.682642+00:00", "meta": {"OBJECT_NAME": "COSMOS 2251 DEB", "OBJECT_ID": "1993-036DW", "EPOCH": "2025-12-09T12:04:03.504576", "MEAN_MOTION": 13.69351371, "ECCENTRICITY": 0.03312183, "INCLINATION": 74.1067, "RA_OF_ASC_NODE": 127.7008, "ARG_OF_PERICENTER": 229.3673, "MEAN_ANOMALY": 127.8211, "EPHEMERIS_TYPE": 0, "CLASSIFICATION_TYPE": "U", "NORAD_CAT_ID": 33917, "ELEMENT_SET_NO": 999, "REV_AT_EPOCH": 83689, "BSTAR": 0.0011704247, "MEAN_MOTION_DOT": 1.471e-05, "MEAN_MOTION_DDOT": 0}, "tle": {"line1": "1 33917U 93036DW  25343.50281834  .00001471  00000+0  11704-2 0  9999", "line2": "2 33917  74.1067 127.7008 0331218 229.3673 127.8211 13.69351371836890"}}, "geometry": {"type": "Point", "coordinates": [112.67247619446805, -41.202710070616206]}}, {"type": "Feature", "properties": {"norad_id": 33920, "name": "COSMOS 2251 DEB", "group": "cosmos-2251-debris", "lat": -13.297180926655216, "lon": 127.7738556612554, "alt_km": 715.4939076140472, "timestamp": "2025-12-09T20:37:09.682653+00:00", "meta": {"OBJECT_NAME": "COSMOS 2251 DEB", "OBJECT_ID": "1993-036DZ", "EPOCH": "2025-12-09T08:12:16.632288", "MEAN_MOTION": 14.58175979, "ECCENTRICITY": 0.0038367, "INCLINATION": 74.0621, "RA_OF_ASC_NODE": 304.8836, "ARG_OF_PERICENTER": 311.9073, "MEAN_ANOMALY": 47.8822, "EPHEMERIS_TYPE": 0, "CLASSIFICATION_TYPE": "U", "NORAD_CAT_ID": 33920, "ELEMENT_SET_NO": 999, "REV_AT_EPOCH": 88065, "BSTAR": 0.0028547893, "MEAN_MOTION_DOT": 0.00013297, "MEAN_MOTION_DDOT": 0}, "tle": {"line1": "1 33920U 93036DZ  25343.34185917  .00013297  00000+0  28548-2 0  9993", "line2": "2 33920  74.0621 304.8836 0038367 311.9073  47.8822 14.58175979880656"}}, "geometry": {"type": "Point", "coordinates": [127.7738556612554, -13.297180926655216]}}, {"type": "Feature", "properties": {"norad_id": 33922, "name": "COSMOS 2251 DEB", "group": "cosmos-2251-debris", "lat": 61.91918082261223, "lon": -174.4127218509604, "alt_km": 736.6960869071218, "timestamp": "2025-12-09T20:37:09.682663+00:00", "meta": {"OBJECT_NAME": "COSMOS 2251 DEB", "OBJECT_ID": "1993-036EB", "EPOCH": "2025-12-09T12:18:17.685216", "MEAN_MOTION": 14.49489719, "ECCENTRICITY": 0.00232609, "INCLINATION": 74.0465, "RA_OF_ASC_NODE": 153.8137, "ARG_OF_PERICENTER": 264.7889, "MEAN_ANOMALY": 154.7414, "EPHEMERIS_TYPE": 0, "CLASSIFICATION_TYPE": "U", "NORAD_CAT_ID": 33922, "ELEMENT_SET_NO": 999, "REV_AT_EPOCH": 88531, "BSTAR": 0.0007675594, "MEAN_MOTION_DOT": 2.924e-05, "MEAN_MOTION_DDOT": 0}, "tle": {"line1": "1 33922U 93036EB  25343.51270469  .00002924  00000+0  76756-3 0  9991", "line2": "2 33922  74.0465 153.8137 0023260 264.7889 154.7414 14.49489719885319"}}, "geometry": {"type": "Point", "coordinates": [-174.4127218509604, 61.91918082261223]}}, {"type": "Feature", "properties": {"norad_id": 33924, "name": "COSMOS 2251 DEB", "group": "cosmos-2251-debris", "lat": -52.078321489430586, "lon": -106.90553394229823, "alt_km": 778.4604533370875, "timestamp": "2025-12-09T20:37:09.682674+00:00", "meta": {"OBJECT_NAME": "COSMOS 2251 DEB", "OBJECT_ID": "1993-036ED", "EPOCH": "2025-12-09T13:45:37.512576", "MEAN_MOTION": 13.50217192, "ECCENTRICITY": 0.04040538, "INCLINATION": 73.9143, "RA_OF_ASC_NODE": 275.291, "ARG_OF_PERICENTER": 311.301, "MEAN_ANOMALY": 45.3955, "EPHEMERIS_TYPE": 0, "CLASSIFICATION_TYPE": "U", "NORAD_CAT_ID": 33924, "ELEMENT_SET_NO": 999, "REV_AT_EPOCH": 82696, "BSTAR": 0.0017420279, "MEAN_MOTION_DOT": 1.824e-05, "MEAN_MOTION_DDOT": 0}, "tle": {"line1": "1 33924U 93036ED  25343.57335084  .00001824  00000+0  17420-2 0  9994", "line2": "2 33924  73.9143 275.2910 0404053 311.3010  45.3955 13.50217192826964"}}, "geometry": {"type": "Point", "coordinates": [-106.90553394229823, -52.078321489430586]}}, {"type": "Feature", "properties": {"norad_id": 33928, "name": "COSMOS 2251 DEB", "group": "cosmos-2251-debris", "lat": -63.61911207560615, "lon": 22.445200111061954, "alt_km": 719.9869682682865, "timestamp": "2025-12-09T20:37:09.682684+00:00", "meta": {"OBJECT_NAME": "COSMOS 2251 DEB", "OBJECT_ID": "1993-036EH", "EPOCH": "2025-12-09T06:00:15.024096", "MEAN_MOTION": 14.47395228, "ECCENTRICITY": 0.0061289, "INCLINATION": 73.9261, "RA_OF_ASC_NODE": 59.1349, "ARG_OF_PERICENTER": 354.006, "MEAN_ANOMALY": 6.0357, "EPHEMERIS_TYPE": 0, "CLASSIFICATION_TYPE": "U", "NORAD_CAT_ID": 33928, "ELEMENT_SET_NO": 999, "REV_AT_EPOCH": 88594, "BSTAR": 0.0004366, "MEAN_MOTION_DOT": 1.61e-05, "MEAN_MOTION_DDOT": 0}, "tle": {"line1": "1 33928U 93036EH  25343.25017389  .00001610  00000+0  43660-3 0  9997", "line2": "2 33928  73.9261  59.1349 0061289 354.0060   6.0357 14.47395228885940"}}, "geometry": {"type": "Point", "coordinates": [22.445200111061954, -63.61911207560615]}}, {"type": "Feature", "properties": {"norad_id": 33932, "name": "COSMOS 2251 DEB", "group": "cosmos-2251-debris", "lat": 19.78082653841199, "lon": 135.32117757516903, "alt_km": 775.2639544209442, "timestamp": "2025-12-09T20:37:09.682696+00:00", "meta": {"OBJECT_NAME": "COSMOS 2251 DEB", "OBJECT_ID": "1993-036EM", "EPOCH": "2025-12-09T09:52:17.504544", "MEAN_MOTION": 14.38743008, "ECCENTRICITY": 0.00351422, "INCLINATION": 74.0347, "RA_OF_ASC_NODE": 322.0562, "ARG_OF_PERICENTER": 39.1528, "MEAN_ANOMALY": 321.2159, "EPHEMERIS_TYPE": 0, "CLASSIFICATION_TYPE": "U", "NORAD_CAT_ID": 33932, "ELEMENT_SET_NO": 999, "REV_AT_EPOCH": 87950, "BSTAR": 0.00083952024, "MEAN_MOTION_DOT": 2.571e-05, "MEAN_MOTION_DDOT": 0}, "tle": {"line1": "1 33932U 93036EM  25343.41131371  .00002571  00000+0  83952-3 0  9993", "line2": "2 33932  74.0347 322.0562 0035142  39.1528 321.2159 14.38743008879500"}}, "geometry": {"type": "Point", "coordinates": [135.32117757516903, 19.78082653841199]}}, {"type": "Feature", "properties": {"norad_id": 33933, "name": "COSMOS 2251 DEB", "group": "cosmos-2251-debris", "lat": 57.860889647911094, "lon": 92.38874843250784, "alt_km": 724.7691279909022, "timestamp": "2025-12-09T20:37:09.682706+00:00", "meta": {"OBJECT_NAME": "COSMOS 2251 DEB", "OBJECT_ID": "1993-036EN", "EPOCH": "2025-12-09T15:18:38.190528", "MEAN_MOTION": 14.33481575, "ECCENTRICITY": 0.00707941, "INCLINATION": 74.0894, "RA_OF_ASC_NODE": 65.7895, "ARG_OF_PERICENTER": 75.1308, "MEAN_ANOMALY": 285.767, "EPHEMERIS_TYPE": 0, "CLASSIFICATION_TYPE": "U", "NORAD_CAT_ID": 33933, "ELEMENT_SET_NO": 999, "REV_AT_EPOCH": 87740, "BSTAR": 0.00049516749, "MEAN_MOTION_DOT": 1.382e-05, "MEAN_MOTION_DDOT": 0}, "tle": {"line1": "1 33933U 93036EN  25343.63794202  .00001382  00000+0  49517-3 0  9994", "line2": "2 33933  74.0894  65.7895 0070794  75.1308 285.7670 14.33481575877408"}}, "geometry": {"type": "Point", "coordinates": [92.38874843250784, 57.860889647911094]}}, {"type": "Feature", "properties": {"norad_id": 33934, "name": "COSMOS 2251 DEB", "group": "cosmos-2251-debris", "lat": -73.69779799369064, "lon": 27.927805849535936, "alt_km": 695.0318894582979, "timestamp": "2025-12-09T20:37:09.682717+00:00", "meta": {"OBJECT_NAME": "COSMOS 2251 DEB", "OBJECT_ID": "1993-036EP", "EPOCH": "2025-12-09T11:08:33.539712", "MEAN_MOTION": 14.59060913, "ECCENTRICITY": 0.00157995, "INCLINATION": 74.0383, "RA_OF_ASC_NODE": 106.8122, "ARG_OF_PERICENTER": 230.6664, "MEAN_ANOMALY": 129.3102, "EPHEMERIS_TYPE": 0, "CLASSIFICATION_TYPE": "U", "NORAD_CAT_ID": 33934, "ELEMENT_SET_NO": 999, "REV_AT_EPOCH": 88691, "BSTAR": 0.0015217155, "MEAN_MOTION_DOT": 7.145e-05, "MEAN_MOTION_DDOT": 0}, "tle": {"line1": "1 33934U 93036EP  25343.46427708  .00007145  00000+0  15217-2 0  9992", "line2": "2 33934  74.0383 106.8122 0015799 230.6664 129.3102 14.59060913886915"}}, "geometry": {"type": "Point", "coordinates": [27.927805849535936, -73.69779799369064]}}, {"type": "Feature", "properties": {"norad_id": 33936, "name": "COSMOS 2251 DEB", "group": "cosmos-2251-debris", "lat": -8.786096551780217, "lon": -134.4715665447054, "alt_km": 676.7641859209098, "timestamp": "2025-12-09T20:37:09.682727+00:00", "meta": {"OBJECT_NAME": "COSMOS 2251 DEB", "OBJECT_ID": "1993-036ER", "EPOCH": "2025-12-09T11:32:04.567488", "MEAN_MOTION": 14.60238234, "ECCENTRICITY": 0.00277593, "INCLINATION": 74.0188, "RA_OF_ASC_NODE": 43.7128, "ARG_OF_PERICENTER": 199.7847, "MEAN_ANOMALY": 160.2244, "EPHEMERIS_TYPE": 0, "CLASSIFICATION_TYPE": "U", "NORAD_CAT_ID": 33936, "ELEMENT_SET_NO": 999, "REV_AT_EPOCH": 88842, "BSTAR": 0.0011514782, "MEAN_MOTION_DOT": 5.559e-05, "MEAN_MOTION_DDOT": 0}, "tle": {"line1": "1 33936U 93036ER  25343.48060842  .00005559  00000+0  11515-2 0  9992", "line2": "2 33936  74.0188  43.7128 0027759 199.7847 160.2244 14.60238234888426"}}, "geometry": {"type": "Point", "coordinates": [-134.4715665447054, -8.786096551780217]}}, {"type": "Feature", "properties": {"norad_id": 33938, "name": "COSMOS 2251 DEB", "group": "cosmos-2251-debris", "lat": -2.14070762107492, "lon": 33.167259261274666, "alt_km": 743.7098566208097, "timestamp": "2025-12-09T20:37:09.682738+00:00", "meta": {"OBJECT_NAME": "COSMOS 2251 DEB", "OBJECT_ID": "1993-036ET", "EPOCH": "2025-12-09T14:56:00.208896", "MEAN_MOTION": 14.46779492, "ECCENTRICITY": 0.00168628, "INCLINATION": 74.045, "RA_OF_ASC_NODE": 212.9967, "ARG_OF_PERICENTER": 295.3867, "MEAN_ANOMALY": 93.4524, "EPHEMERIS_TYPE": 0, "CLASSIFICATION_TYPE": "U", "NORAD_CAT_ID": 33938, "ELEMENT_SET_NO": 999, "REV_AT_EPOCH": 88355, "BSTAR": 0.00070324366, "MEAN_MOTION_DOT": 2.524e-05, "MEAN_MOTION_DDOT": 0}, "tle": {"line1": "1 33938U 93036ET  25343.62222464  .00002524  00000+0  70324-3 0  9993", "line2": "2 33938  74.0450 212.9967 0016862 295.3867  93.4524 14.46779492883556"}}, "geometry": {"type": "Point", "coordinates": [33.167259261274666, -2.14070762107492]}}]}